{
  "type": "FeatureCollection",
  "features": [
    {
      "type": "Feature",
      "properties": {
        "norad_id": 24946,
        "name": "IRIDIUM 33",
        "group": "iridium-33-debris",
        "lat": -31.010037945172183,
        "lon": -108.02451285191813,
        "alt_km": 776.3689474802895,
        "timestamp": "2025-12-08T23:34:04.355745+00:00",
        "meta_object_name": "IRIDIUM 33",
        "meta_object_id": "1997-051C",
        "meta_epoch": "2025-12-08T07:31:33.752640",
        "meta_mean_motion": 14.3503278,
        "meta_eccentricity": 0.0006551,
        "meta_inclination": 86.387,
        "meta_ra_of_asc_node": 70.0794,
        "meta_arg_of_pericenter": 216.8885,
        "meta_mean_anomaly": 143.1862,
        "meta_ephemeris_type": 0,
        "meta_classification_type": "U",
        "meta_norad_cat_id": 24946,
        "meta_element_set_no": 999,
        "meta_rev_at_epoch": 47771,
        "meta_bstar": 0.00023633187,
        "meta_mean_motion_dot": 6.93e-06,
        "meta_mean_motion_ddot": 0,
        "tle_line1": "1 24946U 97051C   25342.31358510  .00000693  00000+0  23633-3 0  9996",
        "tle_line2": "2 24946  86.3870  70.0794 0006551 216.8885 143.1862 14.35032780477715"
      },
      "geometry": {
        "type": "Point",
        "coordinates": [
          -108.02451285191813,
          -31.010037945172183
        ]
      }
    },
    {
      "type": "Feature",
      "properties": {
        "norad_id": 33773,
        "name": "IRIDIUM 33 DEB",
        "group": "iridium-33-debris",
        "lat": 56.627744748110686,
        "lon": 67.66436426917274,
        "alt_km": 744.04164446702,
        "timestamp": "2025-12-08T23:34:04.355790+00:00",
        "meta_object_name": "IRIDIUM 33 DEB",
        "meta_object_id": "1997-051L",
        "meta_epoch": "2025-12-08T14:59:07.149984",
        "meta_mean_motion": 14.43244382,
        "meta_eccentricity": 0.00121109,
        "meta_inclination": 86.4014,
        "meta_ra_of_asc_node": 62.3334,
        "meta_arg_of_pericenter": 158.6788,
        "meta_mean_anomaly": 201.492,
        "meta_ephemeris_type": 0,
        "meta_classification_type": "U",
        "meta_norad_cat_id": 33773,
        "meta_element_set_no": 999,
        "meta_rev_at_epoch": 88288,
        "meta_bstar": 0.00061619246,
        "meta_mean_motion_dot": 2.094e-05,
        "meta_mean_motion_ddot": 0,
        "tle_line1": "1 33773U 97051L   25342.62438831  .00002094  00000+0  61619-3 0  9996",
        "tle_line2": "2 33773  86.4014  62.3334 0012110 158.6788 201.4920 14.43244382882884"
      },
      "geometry": {
        "type": "Point",
        "coordinates": [
          67.66436426917274,
          56.627744748110686
        ]
      }
    },
    {
      "type": "Feature",
      "properties": {
        "norad_id": 33775,
        "name": "IRIDIUM 33 DEB",
        "group": "iridium-33-debris",
        "lat": 15.20454151530102,
        "lon": -129.83244147444003,
        "alt_km": 744.7233498167552,
        "timestamp": "2025-12-08T23:34:04.355807+00:00",
        "meta_object_name": "IRIDIUM 33 DEB",
        "meta_object_id": "1997-051N",
        "meta_epoch": "2025-12-08T15:00:56.453760",
        "meta_mean_motion": 14.41456089,
        "meta_eccentricity": 0.00138143,
        "meta_inclination": 86.3641,
        "meta_ra_of_asc_node": 51.3098,
        "meta_arg_of_pericenter": 167.4327,
        "meta_mean_anomaly": 309.2562,
        "meta_ephemeris_type": 0,
        "meta_classification_type": "U",
        "meta_norad_cat_id": 33775,
        "meta_element_set_no": 999,
        "meta_rev_at_epoch": 88081,
        "meta_bstar": 0.00064103326,
        "meta_mean_motion_dot": 2.1e-05,
        "meta_mean_motion_ddot": 0,
        "tle_line1": "1 33775U 97051N   25342.62565340  .00002100  00000+0  64103-3 0  9993",
        "tle_line2": "2 33775  86.3641  51.3098 0013814 167.4327 309.2562 14.41456089880812"
      },
      "geometry": {
        "type": "Point",
        "coordinates": [
          -129.83244147444003,
          15.20454151530102
        ]
      }
    },
    {
      "type": "Feature",
      "properties": {
        "norad_id": 33776,
        "name": "IRIDIUM 33 DEB",
        "group": "iridium-33-debris",
        "lat": 77.35051516935556,
        "lon": 98.62661151716213,
        "alt_km": 762.8990045873807,
        "timestamp": "2025-12-08T23:34:04.355821+00:00",
        "meta_object_name": "IRIDIUM 33 DEB",
        "meta_object_id": "1997-051P",
        "meta_epoch": "2025-12-08T13:14:18.473280",
        "meta_mean_motion": 14.38224487,
        "meta_eccentricity": 0.00138516,
        "meta_inclination": 86.4038,
        "meta_ra_of_asc_node": 82.5345,
        "meta_arg_of_pericenter": 204.5911,
        "meta_mean_anomaly": 166.4368,
        "meta_ephemeris_type": 0,
        "meta_classification_type": "U",
        "meta_norad_cat_id": 33776,
        "meta_element_set_no": 999,
        "meta_rev_at_epoch": 88022,
        "meta_bstar": 0.00064372908,
        "meta_mean_motion_dot": 1.976e-05,
        "meta_mean_motion_ddot": 0,
        "tle_line1": "1 33776U 97051P   25342.55160270  .00001976  00000+0  64373-3 0  9998",
        "tle_line2": "2 33776  86.4038  82.5345 0013851 204.5911 166.4368 14.38224487880221"
      },
      "geometry": {
        "type": "Point",
        "coordinates": [
          98.62661151716213,
          77.35051516935556
        ]
      }
    },
    {
      "type": "Feature",
      "properties": {
        "norad_id": 33777,
        "name": "IRIDIUM 33 DEB",
        "group": "iridium-33-debris",
        "lat": -8.86685648667236,
        "lon": 36.27184427533225,
        "alt_km": 711.2863511417727,
        "timestamp": "2025-12-08T23:34:04.355833+00:00",
        "meta_object_name": "IRIDIUM 33 DEB",
        "meta_object_id": "1997-051Q",
        "meta_epoch": "2025-12-08T15:21:32.711616",
        "meta_mean_motion": 14.55568461,
        "meta_eccentricity": 0.00050676,
        "meta_inclination": 86.3783,
        "meta_ra_of_asc_node": 36.9867,
        "meta_arg_of_pericenter": 268.4261,
        "meta_mean_anomaly": 91.6366,
        "meta_ephemeris_type": 0,
        "meta_classification_type": "U",
        "meta_norad_cat_id": 33777,
        "meta_element_set_no": 999,
        "meta_rev_at_epoch": 88474,
        "meta_bstar": 0.0014514275,
        "meta_mean_motion_dot": 6.347e-05,
        "meta_mean_motion_ddot": 0,
        "tle_line1": "1 33777U 97051Q   25342.63996194  .00006347  00000+0  14514-2 0  9998",
        "tle_line2": "2 33777  86.3783  36.9867 0005067 268.4261  91.6366 14.55568461884747"
      },
      "geometry": {
        "type": "Point",
        "coordinates": [
          36.27184427533225,
          -8.86685648667236
        ]
      }
    },
    {
      "type": "Feature",
      "properties": {
        "norad_id": 33850,
        "name": "IRIDIUM 33 DEB",
        "group": "iridium-33-debris",
        "lat": 43.49146937178998,
        "lon": -151.684000906,
        "alt_km": 741.0881536509496,
        "timestamp": "2025-12-08T23:34:04.355845+00:00",
        "meta_object_name": "IRIDIUM 33 DEB",
        "meta_object_id": "1997-051T",
        "meta_epoch": "2025-12-08T15:08:48.189120",
        "meta_mean_motion": 14.4213501,
        "meta_eccentricity": 0.00118337,
        "meta_inclination": 86.3419,
        "meta_ra_of_asc_node": 31.9463,
        "meta_arg_of_pericenter": 173.6819,
        "meta_mean_anomaly": 302.206,
        "meta_ephemeris_type": 0,
        "meta_classification_type": "U",
        "meta_norad_cat_id": 33850,
        "meta_element_set_no": 999,
        "meta_rev_at_epoch": 88093,
        "meta_bstar": 0.00062880549,
        "meta_mean_motion_dot": 2.088e-05,
        "meta_mean_motion_ddot": 0,
        "tle_line1": "1 33850U 97051T   25342.63111330  .00002088  00000+0  62881-3 0  9990",
        "tle_line2": "2 33850  86.3419  31.9463 0011833 173.6819 302.2060 14.42135010880931"
      },
      "geometry": {
        "type": "Point",
        "coordinates": [
          -151.684000906,
          43.49146937178998
        ]
      }
    },
    {
      "type": "Feature",
      "properties": {
        "norad_id": 33853,
        "name": "IRIDIUM 33 DEB",
        "group": "iridium-33-debris",
        "lat": 23.075242175966604,
        "lon": -6.832428935240475,
        "alt_km": 1003.1097716625345,
        "timestamp": "2025-12-08T23:34:04.355859+00:00",
        "meta_object_name": "IRIDIUM 33 DEB",
        "meta_object_id": "1997-051W",
        "meta_epoch": "2025-12-08T12:11:22.986816",
        "meta_mean_motion": 13.99022624,
        "meta_eccentricity": 0.02069228,
        "meta_inclination": 85.9997,
        "meta_ra_of_asc_node": 351.667,
        "meta_arg_of_pericenter": 248.9226,
        "meta_mean_anomaly": 266.3481,
        "meta_ephemeris_type": 0,
        "meta_classification_type": "U",
        "meta_norad_cat_id": 33853,
        "meta_element_set_no": 999,
        "meta_rev_at_epoch": 85286,
        "meta_bstar": 0.0029663214,
        "meta_mean_motion_dot": 5.167e-05,
        "meta_mean_motion_ddot": 0,
        "tle_line1": "1 33853U 97051W   25342.50790494  .00005167  00000+0  29663-2 0  9994",
        "tle_line2": "2 33853  85.9997 351.6670 0206922 248.9226 266.3481 13.99022624852860"
      },
      "geometry": {
        "type": "Point",
        "coordinates": [
          -6.832428935240475,
          23.075242175966604
        ]
      }
    }
  ]
}